ONEWEB-0012             
1 44057U 19010A   24184.88176280  .00000007  00000+0 -14937-4 0  9995
2 44057  87.9099  11.0069 0002579  78.0939 282.0481 13.16594964257579
ONEWEB-0010             
1 44058U 19010B   24184.90708602  .00000048  00000+0  92527-4 0  9993
2 44058  87.9102  10.9816 0001840  69.9325 290.2003 13.16596064257621
ONEWEB-0008             
1 44059U 19010C   24184.93242138 -.00000003  00000+0 -41775-4 0  9996
2 44059  87.9100  10.9777 0001816  98.1210 262.0127 13.16596026257741
ONEWEB-0007             
1 44060U 19010D   24184.62831628 -.00000126  00000+0 -36978-3 0  9996
2 44060  87.9033  41.4027 0002178  78.3117 281.8258 13.15549747257429
ONEWEB-0006             
1 44061U 19010E   24184.63227395 -.00000104  00000+0 -31148-3 0  9998
2 44061  87.9023  41.3836 0002014  76.5019 283.6336 13.15546370257477
ONEWEB-0011             
1 44062U 19010F   24184.83034189  .00000238  00000+0  59841-3 0  9994
2 44062  87.9026  41.3452 0001687  76.6971 283.4348 13.15550385257492
ONEWEB-0013             
1 45131U 20008A   24184.93947651  .00000697  00000+0  19886-2 0  9992
2 45131  87.8627 196.4736 0002957  96.4328 263.7135 13.09384043212596
ONEWEB-0017             
1 45132U 20008B   24184.90440000  .00000520  00000+0  14526-2 0  9997
2 45132  87.8936 178.3094 0001935  79.5234 280.6111 13.10369707214405
